TUBIN
1 48900U 21059X   25216.94429350  .00046097  00000-0  46553-3 0  9992
2 48900  97.6768  30.9559 0002760  32.4058 327.7370 15.65215798228846
LEDSAT
1 49069U 21073D   25216.66114341  .00099339  00000-0  86312-3 0  9999
2 49069  97.3851 300.8390 0008802 221.6783 138.3809 15.68721292220204
CUTE-LASP
1 49263U 21088D   25216.59449391  .00022309  00000-0  40653-3 0  9990
2 49263  97.4487 294.5562 0007201  43.2006 316.9808 15.49457209213099
JILIN-01 GAOFEN 2F
1 49338U 21097A   25217.19762966  .00003544  22511-8  25433-3 0  9994
2 49338  97.6351 340.7212 0018884 217.4770 142.5141 15.04244557203297
TEIKYOSAT-4 (OORURI)
1 49396U 21102B   25216.82976389  .00001731  00000-0  11682-3 0  9998
2 49396  97.4078 253.2242 0010899 305.3044  54.7165 15.07846387205020
Z-SAT
1 49399U 21102E   25216.90664418  .00003536  00000-0  19330-3 0  9990
2 49399  97.3773 256.7485 0016173 268.0712  91.8668 15.14812162205504
KOSEN-1
1 49402U 21102H   25216.86862808  .00006300  00000-0  28702-3 0  9998
2 49402  97.3674 260.5599 0014277 237.9856 121.9993 15.20928688205846
CAMSAT XW-3 (CAS-9)
1 50466U 21131B   25216.94107588  .00000457  00000-0  15648-3 0  9990
2 50466  98.5102 306.0192 0003534 343.5114  16.5959 14.40869583189567
SICH-2-1 (SICH-2-30)
1 51030U 22002AY  25216.90630253  .00106302  00000-0  73181-3 0  9994
2 51030  97.3294 296.3099 0002457 281.1742  78.9246 15.74311543198363
VZLUSAT-2
1 51085U 22002DF  25216.94615810  .00055190  00000-0  62804-3 0  9998
2 51085  97.3290 291.6035 0003594 351.8358   8.2840 15.62116640198069
INSPIRESAT-1
1 51657U 22013B   25216.47397952  .00026988  00000-0  51567-3 0  9994
2 51657  97.4863 247.9037 0007956 125.7053 234.4939 15.48050970193023
GOES-18
1 51850U 22021A   25216.48170650  .00000106  00000-0  00000-0 0  9990
2 51850   0.0049 232.7550 0000280 293.3737 183.5746  1.00270745  3410
MERIDIAN-10
1 52145U 22030A   25215.93388503  .00000238  00000-0  00000+0 0  9990
2 52145  62.6603 174.2251 6741678 273.3164  17.8178  2.00599857 24653
BRO-6
1 52422U 22047AE  25217.20170755  .00011186  00000-0  31180-3 0  9997
2 52422  97.3634 300.5353 0006589 126.1142 234.0713 15.36921874182437
CONNECTA-T1
1 52739U 22057H   25216.79453047  .00043020  00000-0  58665-3 0  9999
2 52739  97.6151   0.1110 0004385 128.7937 231.3709 15.57387947177867
PLATFORM-1
1 52770U 22057AQ  25216.34848506  .00103733  00000-0  67756-3 0  9992
2 52770  97.6076   5.4256 0002484 124.3442 235.8058 15.75537218178212
STEP CUBELAB-II
1 52897U 22065D   25216.86875392  .00000836  00000-0  17449-3 0  9995
2 52897  98.1781 357.7763 0007540 300.5061  59.5396 14.62457901165251
RANDEV
1 52898U 22065E   25216.87903268  .00000894  00000-0  18448-3 0  9995
2 52898  98.1770 358.0077 0006864 302.1073  57.9462 14.62779990164992
SNUGLITE-II
1 52899U 22065F   25216.63086317  .00001105  00000-0  22316-3 0  9992
2 52899  98.1758 358.0833 0006448 302.8112  57.2469 14.63323779164685
MIMAN
1 52900U 22065G   25216.83081305  .00000577  00000-0  12652-3 0  9993
2 52900  98.1804 356.8962 0006483 300.1274  59.9284 14.61231097164232
GREENCUBE (IO-117)
1 53106U 22080B   25051.21822557 -.00000003  00000-0  00000 0 0  9995
2 53106  70.1434 106.3440 0008542  48.0089 312.1297  6.42557744 61200
ROBUSTA 1F (MTCUBE-2)
1 53109U 22080E   25216.46421220 -.00000003  00000-0  00000-0 0  9991
2 53109  70.1408  48.3768 0008610 358.8309   1.2330  6.42583795 71711
BLUEWALKER-3
1 53807U 22111AL  25216.90910232  .00004496  00000-0  14746-3 0  9990
2 53807  53.2319  73.9162 0005479 285.9435  74.0964 15.33659527161595
ELEKTRO-L4
1 55506U 23016A   25216.66880798 -.00000050  00000-0  00000-0 0  9997
2 55506   0.0570 175.6855 0001630  21.6155 162.6889  1.00272032  9154
SHARJAHSAT-1
1 55104U 23001CZ  25217.11434923  .00011646  00000-0  33612-3 0  9991
2 55104  97.3677 278.7038 0008452 156.8754 203.2871 15.35807820143770
METEOR M2-3
1 57166U 23091A   25217.19531990 -.00000014  00000-0  13108-4 0  9997
2 57166  98.6578 272.8471 0004241  25.0025 335.1358 14.24005687109540
STRATOSAT-TK1 (RS52S)
1 57167U 23091B   25216.90470595  .00042631  00000-0  92732-3 0  9998
2 57167  97.5488 282.3665 0008691 111.4287 248.7888 15.44157702116693
RESHUCUBE-2 (RS37S)
1 57168U 23091C   25216.95269979  .00006889  00000-0  32858-3 0  9994
2 57168  97.5529 273.5774 0014635 130.9859 229.2644 15.19317803116123
RASSVET 1-1
1 57169U 23091D   25216.91097044  .00007159  00000-0  35589-3 0  9998
2 57169  97.5586 273.3614 0013212 123.1787 237.0716 15.17874758116089
RASSVET 1-2
1 57170U 23091E   25216.91110695  .00007360  00000-0  36593-3 0  9998
2 57170  97.5592 273.4164 0012049 115.7134 244.5345 15.17875476116088
RASSVET 1-3
1 57171U 23091F   25216.91070638  .00007324  00000-0  36396-3 0  9992
2 57171  97.5587 273.3827 0013922 132.6860 227.5549 15.17874725116086
UMKA-1 (RS40S)
1 57172U 23091G   25216.92355686  .00005149  00000-0  27171-3 0  9997
2 57172  97.5548 272.0189 0015472 135.9499 224.2969 15.15887766116017
SATURN (RS43S)
1 57174U 23091J   25216.88892487  .00003886  00000-0  23709-3 0  9998
2 57174  97.5557 269.2377 0015004 152.6627 207.5395 15.10826421115827
CUBEBEL-2 (EU11S)
1 57175U 23091K   25216.93169594  .00008067  00000-0  37471-3 0  9998
2 57175  97.5547 273.5292 0013111 141.3629 218.8546 15.20197332116114
SITRO-AIS-5 (ANOKHIN)
1 57176U 23091L   25216.90030338  .00009353  00000-0  42803-3 0  9993
2 57176  97.5551 273.9597 0015149 131.0179 229.2368 15.20635006116136
ZORKIY-2M
1 57177U 23091M   25216.87147616  .00004615  00000-0  24611-3 0  9991
2 57177  97.5586 272.1574 0016240 133.0350 227.2245 15.15556492116000
CUBESX-HSE-3 (RS42S)
1 57178U 23091N   25216.89604103  .00009496  00000-0  42178-3 0  9993
2 57178  97.5579 274.8540 0014713 124.1532 236.1101 15.21663180116179
PHI-DEMO
1 57181U 23091R   25217.13201637  .00003033  00000-0  18193-3 0  9991
2 57181  97.5562 269.9816 0017303 143.4534 216.7881 15.11593016115896
MONITOR-3 (RS58S)
1 57180U 23091Q   25217.18390267  .00008693  00000-0  40669-3 0  9993
2 57180  97.5573 274.2572 0015303 125.8801 234.3857 15.19895298116169
NORBY-2
1 57179U 23091P   25217.14901059  .00003957  00000-0  22715-3 0  9994
2 57179  97.5595 271.0964 0017314 134.7320 225.5324 15.12994803115941
MONITOR-4 (RS57S)
1 57182U 23091S   25216.91513839  .00008544  00000-0  39923-3 0  9993
2 57182  97.5568 273.9464 0015327 127.2660 232.9975 15.19943458116129
MONITOR-2 (RS39S)
1 57184U 23091U   25217.16029645  .00004858  00000-0  26439-3 0  9992
2 57184  97.5576 272.4607 0013647 126.0854 234.1644 15.14837084116048
SVYATOBOR-1 (RS60S)
1 57187U 23091X   25217.15908507  .00007307  00000-0  34503-3 0  9990
2 57187  97.5579 274.9260 0012462 117.6347 242.6155 15.19669667116207
VIZARD-METEO (RS38S)
1 57189U 23091Z   25217.12864114  .00010934  00000-0  44569-3 0  9997
2 57189  97.5565 277.1819 0010825 110.2233 250.0169 15.24583783116357
NANOZOND-1 (RS49S)
1 57190U 23091AA  25217.16327402  .00028295  00000-0  74879-3 0  9993
2 57190  97.5516 282.2178 0007358 103.7095 256.4969 15.38324189116705
SITRO-AIS-6 (CHIRKIN)
1 57192U 23091AC  25216.89131881  .00008605  00000-0  39530-3 0  9996
2 57192  97.5550 273.9511 0015103 130.8285 229.4262 15.20531314116136
SITRO-AIS-8 (SHCHUKIN)
1 57193U 23091AD  25216.94244790  .00009619  00000-0  42242-3 0  9997
2 57193  97.5546 274.6308 0014508 129.9128 230.3385 15.22050827116186
SITRO-AIS-7 (SHEFFER)
1 57194U 23091AE  25216.91674706  .00008429  00000-0  38853-3 0  9990
2 57194  97.5549 273.9065 0014906 131.3925 228.8594 15.20423835116136
AVION KALUGA 650
1 57195U 23091AF  25217.19093589  .00004859  00000-0  25778-3 0  9991
2 57195  97.5587 273.1557 0012847 125.4911 234.7522 15.15758082116088
SITRO-AIS-10 (KATYS)
1 57199U 23091AK  25216.92802329  .00011803  00000-0  46670-3 0  9996
2 57199  97.5559 277.2459 0010498 114.3195 245.9141 15.25586760116341
SITRO-AIS-9 (BURDAEV)
1 57201U 23091AM  25217.14973618  .00011333  00000-0  45086-3 0  9993
2 57201  97.5555 277.3637 0010556 113.8507 246.3838 15.25391933116373
UTMN-2 (RS27S)
1 57203U 23091AP  25217.17163026  .00009842  00000-0  42465-3 0  9992
2 57203  97.5567 276.3531 0011419 112.2349 248.0100 15.22681111116307
SITRO-AIS-12 (FARTUSHNY)
1 57204U 23091AQ  25217.12429753  .00012265  00000-0  48469-3 0  9993
2 57204  97.5565 277.6452 0010382 108.4417 251.7950 15.25596082116380
ARCCUBE-1 (RS25S)
1 57205U 23091AR  25217.15454216  .00059470  00000-0  10303-2 0  9993
2 57205  97.5425 285.2267 0005131 103.0180 257.1645 15.50699089116929
AHMAT-1 (RS41S)
1 57206U 23091AS  25217.12543511  .00019991  00000-0  63210-3 0  9998
2 57206  97.5521 280.2052 0008641 109.1423 251.0755 15.32793948116575
SITRO-AIS-11 (SMIRENNY)
1 57208U 23091AU  25217.13512734  .00011966  00000-0  46994-3 0  9998
2 57208  97.5563 277.7610 0010273 108.3887 251.8469 15.25811468116393
KUZGTU-1 (RS47S)
1 57217U 23091AV  25216.94573697  .00008201  00000-0  37183-3 0  9999
2 57217  97.5554 274.3842 0014765 125.8306 234.4303 15.21005167116169
STRATOSAT-TK1-A (RS45S)
1 57322U 23091AW  25215.67503098  .07407856  25678-5  15142-2 0  9992
2 57322  97.5141 289.6996 0015448 266.2521  93.7007 16.30886971114947
STRATOSAT-TK1-E (RS52SE)
1 57323U 23091AX  25216.93019995  .00026180  00000-0  75004-3 0  9992
2 57323  97.5524 279.9452 0010783 114.9854 245.2510 15.35840940114412
STRATOSAT-TK1-B (RS52SB)
1 57324U 23091AY  25216.73664944  .03028897  25014-5  19370-2 0  9991
2 57324  97.5329 290.6236 0014273 266.3673  93.5982 16.17296998115096
STRATOSAT-TK1-D (RS52SD)
1 57326U 23091BA  25216.87147957  .00024744  00000-0  73079-3 0  9992
2 57326  97.5516 279.5193 0010827 116.6725 243.5627 15.34894792114221
STRATOSAT-TK1-V (RS52SV)
1 57327U 23091BB  25215.94783005  .07226297  25611-5  16265-2 0  9997
2 57327  97.5142 290.0171 0015369 258.0341 101.9230 16.29874339114825
VERONIKA
1 58261U 23174F   25217.17916858  .00723946  23973-3  14847-2 0  9995
2 58261  97.4045 307.6400 0010078 248.2717 111.7489 15.99289145 97628
